K05R00J 22.3   0.15 K177R 304.05843  255.39089  141.24140    6.32650  0.6643401  0.23814998   2.5777197  7 MPO 87754    18   1    7 days 0.27 M-v 3Eh MPCW       2803          2005 RJ            20050908
K05R01D 18.4   0.15 K177R 302.97440    8.38213  279.66278   10.36996  0.5071894  0.22994232   2.6387006  1 MPO315199    45   3 2005-2014 0.39 M-v 38h MPCALB     0005          2005 RD1           20141023
K05R02Z 23.2   0.15 K177R 353.25139  280.15329  155.00162   13.16096  0.1035471  0.84655054   1.1067107  1 MPO258324    37   2 2005-2013 0.34 M-v 3Eh MPCALB     0803          2005 RZ2           20130303
K05R03A 22.3   0.15 K177R 223.51960  233.69101  176.13542    6.76043  0.3267046  0.55771247   1.4617143  4 MPO 97803    32   1  141 days 0.47 M-v 3Eh MPCALB     2803          2005 RA3           20060121
K05R03B 22.6   0.15 K177R  60.28025  320.43208  165.85317   36.04050  0.3934971  1.19922958   0.8774071  7 MPO 87755    80   1    7 days 0.44 M-v 3Eh MPCALB     2802          2005 RB3           20050909
K05R03J 23.4   0.15 K177R 150.30705   12.10764  345.89286    8.81777  0.5312687  0.28426525   2.2907984  4 MPO 97803    54   1   68 days 0.46 M-v 3Eh MPCADO     2804          2005 RJ3           20051112
K05R03K 23.7   0.15 K177R 179.57800   18.28296  342.69683    3.72475  0.1850972  0.70771923   1.2470831  0 MPO246825   233   2 2005-2012 0.36 M-v 3Eh MPCW       0804          2005 RK3           20121214
K05R03W 22.8   0.15 K177R 335.96514  219.61459   48.91962    2.70048  0.6441885  0.32284811   2.1044432  7 MPO 90241    35   1   24 days 0.50 M-v 3Eh MPCALB     2803          2005 RW3           20050930
K05R03X 22.3   0.15 K177R  61.13995   74.13268    0.17349   16.89440  0.5315252  0.51896564   1.5335937  8 MPO 87755    27   1    3 days 0.52 M-v 3Eh MPCALB     2803          2005 RX3           20050909
K05R06P 21.2   0.15 K177R 179.03676  287.25593  351.05928   12.52323  0.5759170  0.28631052   2.2798757  5 MPO 90241    49   1   46 days 0.51 M-v 3Eh MPCADO     2803          2005 RP6           20051024
K05R06Q 18.9   0.15 K177R 341.32068    5.49381   36.18424   12.48343  0.5513897  0.24862797   2.5047789  0 MPO285670   621   3 2005-2014 0.31 M-v 38h MPCALB     0804          2005 RQ6           20140118
K05R09W 16.8   0.15 K177R 325.30266  204.62324  181.86024   41.32413  0.4558057  0.16061319   3.3518295  4 MPO 90242    50   1   69 days 0.47 M-v 38h MPCADO     2000          2005 RW9           20051108
K05R24V 20.6   0.15 K177R 179.32556   33.40814  166.39812   36.28247  0.8818758  0.53340025   1.5057998  6 MPO 90243    30   1   28 days 0.55 M-v 3Eh MPCS       2803          2005 RV24          20051007
K05R33O 20.1   0.15 K177R 165.65121  234.23560  112.52969    7.30911  0.4088094  0.36908331   1.9248037  0 MPO278201    85   2 2005-2013 0.43 M-v 38h MPCALB     0804          2005 RO33          20131124
K05R34C 19.7   0.15 K177R   8.60871   36.15900  290.96488   10.76574  0.5128397  0.33301416   2.0613936  0 MPO264942   366   3 2005-2011 0.46 M-v 3Eh MPCW       8804          2005 RC34          20110518
K05R34D 20.3   0.15 K177R 330.94247  102.05033  175.55927   19.92121  0.2646302  0.64499243   1.3266804  1 MPO285670    81   3 2005-2014 0.61 M-v 3Eh MPCALB     0803          2005 RD34          20140123
K05R40T 19.0   0.15 K177R  26.11821  341.77240  359.99280    6.29189  0.4684063  0.17123835   3.2117029  4 MPO171152    21   1   65 days 0.31 M-v 38h MPCS       2000          2005 RT40          20051103
K05R43P  5.8   0.15 K177R   9.25260  346.04670  344.25740   22.96130  0.5895082  0.00109591  93.1721209  1 MPO386756    91   8 2005-2014 0.21 M-v 38h MPCW       040A          2005 RP43          20141117
K05R43Q  6.2   0.15 K177R  63.23314  266.54388   66.25161   20.24039  0.0930745  0.00372832  41.1902017  1 MPO386756   116   8 2005-2015 0.18 M-v 38h MPCW       040A          2005 RQ43          20150110
K05R52H  7.8   0.15 K177R   2.73852   32.30504  306.09829   20.44667  0.7435299  0.00052630 151.9310907  2 MPO201709    27   5 2005-2009 0.19 M-v 38h MPCW       000A          2005 RH52          20090725
K05S00C 20.2   0.15 K177R 161.24021  156.67368  281.01616    6.60402  0.6623614  0.29081680   2.2562630  1 MPO377775    82   2 2005-2016 0.37 M-v 3Eh MPCALB     0803          2005 SC            20160404
K05S00L 22.9   0.15 K177R 254.74828  289.85884  176.17022    6.15092  0.2979707  0.82517668   1.1257400  8 MPO 87761    34   1   10 days 0.64 M-v 3Eh MPCALB     2803          2005 SL            20051002
K05S00Q 20.1   0.15 K177R 247.05161  294.80491  317.30483    1.20037  0.5744435  0.46297750   1.6548658  3 MPO384170    76   2 2005-2016 0.39 M-v 3Eh MPCR       8803          2005 SQ            20160730
K05S01O 25.4   0.15 K177R 266.68918  315.58242  358.83029    5.23753  0.5771848  0.30894347   2.1671220  6 MPO 87762    57   1   14 days 0.54 M-v 3Eh MPCK       2803          2005 SO1           20051007
K05S01P 23.3   0.15 K177R  92.61557  110.86988  179.12033    6.01576  0.6638591  0.26717346   2.3874842  3 MPO202415   112   1   20 days 0.46 M-v 3Eh MPCADO     2803          2005 SP1           20051013
K05S01Q 25.3   0.15 K177R  71.82904  161.68681  176.99435    6.41123  0.4117746  0.43100115   1.7357364  6 MPO 90246    42   1   30 days 0.53 M-v 3Eh MPCALB     2804          2005 SQ1           20051023
K05S01S 26.1   0.15 K177R 103.28288  143.11041  178.93170    2.88049  0.5130021  0.35435759   1.9777659  5 MPO202415    34   1   14 days 0.69 M-v 3Eh MPCADO     2803          2005 SS1           20051007
K05S04R 23.5   0.15 K177R 251.90421  332.97153  357.75835    6.82961  0.4736702  0.30526419   2.1845005  6 MPO 97808    22   1   29 days 0.50 M-v 38h MPCW       2804          2005 SR4           20051023
K05S04T 22.4   0.15 K177R  86.74574  230.50014  169.47168    5.02063  0.5572741  0.27198154   2.3592634  5 MPO 97808    46   1   89 days 0.62 M-v 3Eh MPCADO     2804          2005 ST4           20051223
K05S04V 22.7   0.15 K177R  77.12423  141.54339  173.58368    8.10306  0.5966827  0.26586908   2.3952866  6 MPO 90247    40   1   27 days 0.42 M-v 3Eh MPCADO     2803          2005 SV4           20051022
K05S04W 20.1   0.15 K177R 220.77326   65.00298   10.23943    6.85079  0.5382414  0.22196100   2.7015827  1 MPO331246   112   2 2005-2015 0.40 M-v 38h MPCALB     0804          2005 SW4           20150213
K05S04X 20.4   0.15 K177R 213.27205  250.16064  171.03040    3.54070  0.5753938  0.21886149   2.7270294  0 MPO331246   293   4 2005-2015 0.39 M-v 38h MPCALB     0804          2005 SX4           20150117
K05S09P 21.2   0.15 K177R 325.95526  228.09857  354.84654   27.74628  0.6238299  1.22382842   0.8656102  4 MPO186972    63   3 2005-2010 0.63 M-v 3Eh MPCALB     0802          2005 SP9           20101009
K05S09Q 22.9   0.15 K177R 338.62342  280.35456    6.83532    4.03966  0.3558248  0.56873685   1.4427635  6 MPO230206    42   1   29 days 0.62 M-v 3Eh MPCALB     2803          2005 SQ9           20051025
K05S09W 19.6   0.15 K177R  40.49350  194.90053  226.40255   15.51693  0.5736268  0.34599880   2.0094922  8 MPO 87764    31   1    5 days 0.60 M-v 3Eh MPCW       2803          2005 SW9           20050929
K05S19J 24.0   0.15 K177R  34.30538  312.04293   10.65473   18.43793  0.3812326  0.50357737   1.5646790  6 MPO 87767    32   1   16 days 0.68 M-v 3Eh MPCADO     2803          2005 SJ19          20051013
K05S25M 19.5   0.15 K177R 272.46602  148.66805  193.42852    6.81782  0.4870584  0.31188160   2.1534901  1 MPO138892    80   2 2005-2008 0.51 M-v 38h MPCADO     0804          2005 SM25          20080429
K05S25Y 20.9   0.15 K177R 217.51781  198.02151  211.08751    5.62442  0.5154411  0.22007014   2.7170355  0 MPO326975   108   2 2005-2015 0.30 M-v 38h MPCADO     0005          2005 SY25          20150114
K05S26F 20.3   0.15 K177R 227.82104  145.74155  193.10491   21.77075  0.5042448  0.21695322   2.7429969  7 MPO190433    46   1   13 days 0.72 M-v 38h MPCW       2005          2005 SF26          20051012
K05S26G 25.9   0.15 K177R   6.52238  207.89666  184.83362    5.90809  0.5927804  0.25289882   2.4764992  7 MPO 90253    22   1    8 days 0.38 M-v 3Eh MPCK       2804          2005 SG26          20051007
K05S26H 20.5   0.15 K177R 215.09480   35.83995  193.98991   22.40857  0.3113434  0.85723465   1.0974959  3 MPO277141    62   3 2005-2013 0.56 M-v 3Eh MPCADO     0803          2005 SH26          20131022
K05S26J 23.9   0.15 K177R   9.49347  343.72635   38.99264    3.54938  0.5824052  0.25321554   2.4744336  6 MPO 90253    47   1   21 days 0.55 M-v 3Eh MPCADO     2804          2005 SJ26          20051020
K05S26K 25.5   0.15 K177R 326.26259  229.05130  172.30710    2.14858  0.4661487  0.41185358   1.7891256  5 MPO 87769    42   1    3 days 0.62 M-v 3Eh MPCW       2803          2005 SK26          20051002
K05S70Y 26.8   0.15 K177R 156.11883  358.67116   19.07926    1.43176  0.5376754  0.28650325   2.2788532  7 MPO 87782    18   1    7 days 0.56 M-v 3Eh MPCS       2804          2005 SY70          20051007
K05S70Z 24.4   0.15 K177R 280.24772  118.14765  198.81943    3.71599  0.4404066  0.47729955   1.6215936  6 MPO 90266    65   1   28 days 0.53 M-v 3Eh MPCADO     2803          2005 SZ70          20051028
K05S71C 18.3   0.15 K177R 207.74950  117.84468  196.55374   32.38664  0.3826821  0.37346079   1.9097332  1 MPO335175    88   5 2005-2015 0.45 M-v 38h MPCALB     0C04          2005 SC71          20150316
K05S71D 23.2   0.15 K177R  45.29975  354.53205   40.80143    5.17669  0.3029916  0.51406953   1.5433158  5 MPO 97817    68   1   65 days 0.57 M-v 3Eh MPCM       2804          2005 SD71          20051204
K05SM3B 14.2   0.15 K177R  26.28845  252.50302  219.53816   91.25398  0.9061803  0.00615124  29.5003843  1 MPO104351    50   1  244 days 0.31 M-v 38h MPCW       200A          2005 SB223         20060601
K05SR8D  6.5   0.15 K177R  28.21700  217.79822  152.65741   17.85419  0.2778124  0.00240585  55.1599892  3 MPO230208    90   4 2005-2008 0.18 M-v 38h MPCADO     000A          2005 SD278         20081024
